GPS BIIR-2  (PRN 13)    
1 24876U 97035A   26055.52260908 -.00000004  00000+0  00000+0 0  9994
2 24876  55.9308 102.9797 0097751  56.3307 304.6651  2.00563888209698
GPS BIIR-5  (PRN 22)    
1 26407U 00040A   26057.60067593  .00000047  00000+0  00000+0 0  9998
2 26407  54.8769 219.5521 0122834 302.5157  51.9927  2.00568745187723
GPS BIIR-8  (PRN 16)    
1 27663U 03005A   26056.66896488  .00000061  00000+0  00000+0 0  9991
2 27663  54.9090 219.3971 0148753  52.6719 125.0427  2.00566534169078
GPS BIIR-11 (PRN 19)    
1 28190U 04009A   26057.41463901  .00000023  00000+0  00000+0 0  9994
2 28190  54.9218 280.1629 0110676 168.9143 343.3168  2.00558159160721
GPS BIIR-13 (PRN 02)    
1 28474U 04045A   26056.61839250 -.00000083  00000+0  00000+0 0  9991
2 28474  55.1987 329.3927 0170943 312.5422  47.8353  2.00572911156199
GPS BIIRM-1 (PRN 17)    
1 28874U 05038A   26057.36394345  .00000028  00000+0  00000+0 0  9990
2 28874  54.9675 277.6491 0128962 295.2476 203.8433  2.00573296149614
GPS BIIRM-2 (PRN 31)    
1 29486U 06042A   26056.33297001 -.00000018  00000+0  00000+0 0  9993
2 29486  54.6978 155.7811 0106272  53.1192 318.5935  2.00551267142152
GPS BIIRM-3 (PRN 12)    
1 29601U 06052A   26057.23052598  .00000052  00000+0  00000+0 0  9990
2 29601  54.9578 218.4016 0088018  89.2642 271.7194  2.00551076141188
GPS BIIRM-4 (PRN 15)    
1 32260U 07047A   26057.53760831  .00000002  00000+0  00000+0 0  9994
2 32260  54.0109  84.6257 0163573  85.9120 276.0189  2.00560933134599
GPS BIIRM-5 (PRN 29)    
1 32384U 07062A   26056.10449906  .00000026  00000+0  00000+0 0  9993
2 32384  55.1204 278.6573 0032716 160.6383  12.8855  2.00552947133261
GPS BIIRM-6 (PRN 07)    
1 32711U 08012A   26057.45608507 -.00000030  00000+0  00000+0 0  9992
2 32711  54.4821 154.3498 0206628 246.0828 111.7487  2.00568868131533
GPS BIIRM-8 (PRN 05)    
1 35752U 09043A   26056.94895800 -.00000051  00000+0  00000+0 0  9995
2 35752  56.1440  31.8213 0051587  80.7273 289.2348  2.00560694121131
GPS BIIF-1  (PRN 25)    
1 36585U 10022A   26052.78789276  .00000073  00000+0  00000+0 0  9999
2 36585  54.2909 213.2086 0127407  65.8129 296.5355  2.00556631115282
GPS BIIF-3  (PRN 24)    
1 38833U 12053A   26056.13835903 -.00000020  00000+0  00000+0 0  9998
2 38833  53.5651 148.1913 0176842  64.7258 297.1152  2.00565629 97197
GPS BIIF-4  (PRN 27)    
1 39166U 13023A   26056.50174146  .00000036  00000+0  00000+0 0  9998
2 39166  54.5912 273.5222 0141444  49.8040 311.4741  2.00564121 93643
GPS BIIF-5  (PRN 30)    
1 39533U 14008A   26056.99844825 -.00000027  00000+0  00000+0 0  9992
2 39533  53.6374 153.8564 0082079 228.0655 131.2415  2.00552602 87452
GPS BIIF-6  (PRN 06)    
1 39741U 14026A   26056.77839381 -.00000090  00000+0  00000+0 0  9990
2 39741  56.5497 335.8577 0039940 324.0967  35.6593  2.00569007 86303
GPS BIIF-7  (PRN 09)    
1 40105U 14045A   26056.36678577 -.00000001  00000+0  00000+0 0  9992
2 40105  55.2761  92.9190 0031643 120.6051 239.7710  2.00550914 83837
GPS BIIF-8  (PRN 03)    
1 40294U 14068A   26056.74408701 -.00000042  00000+0  00000+0 0  9993
2 40294  56.9148  35.2485 0062519  68.0398 292.6272  2.00569289 82975
GPS BIIF-9  (PRN 26)    
1 40534U 15013A   26056.37658154  .00000048  00000+0  00000+0 0  9994
2 40534  53.1877 208.8000 0108697  39.7434 321.0157  2.00557911 79586
GPS BIIF-10 (PRN 08)    
1 40730U 15033A   26055.54004631  .00000037  00000+0  00000+0 0  9995
2 40730  54.0705 271.7295 0114306  28.8006 331.8709  2.00561831 77730
GPS BIIF-11 (PRN 10)    
1 41019U 15062A   26056.09754836 -.00000041  00000+0  00000+0 0  9994
2 41019  56.8877  35.1296 0111490 231.4325 127.5686  2.00566915 75584
GPS BIIF-12 (PRN 32)    
1 41328U 16007A   26056.68118640  .00000001  00000+0  00000+0 0  9994
2 41328  55.4510  93.8797 0095261 245.8162 113.2480  2.00556940 73600
GPS BIII-1  (PRN 04)    
1 43873U 18109A   26057.34284535  .00000003  00000+0  00000+0 0  9999
2 43873  55.6107  96.5588 0037858 198.1223 172.2050  2.00556225 52853
GPS BIII-2  (PRN 18)    
1 44506U 19056A   26056.20866679 -.00000088  00000+0  00000+0 0  9998
2 44506  55.6882 335.5959 0057997 198.3446 333.0976  2.00567829 47827
GPS BIII-3  (PRN 23)    
1 45854U 20041A   26057.30044103 -.00000049  00000+0  00000+0 0  9990
2 45854  56.6018  33.2460 0061357 205.2136 336.8844  2.00560410 41811
GPS BIII-4  (PRN 14)    
1 46826U 20078A   26057.59859657  .00000039  00000+0  00000+0 0  9997
2 46826  54.0037 215.2608 0067994 204.1568 166.2942  2.00565415 39293
GPS BIII-5  (PRN 11)    
1 48859U 21054A   26056.84269380 -.00000092  00000+0  00000+0 0  9995
2 48859  55.2241 336.9381 0023990 232.2980 136.3995  2.00575612 34525
GPS BIII-6  (PRN 28)    
1 55268U 23009A   26056.26919649 -.00000018  00000+0  00000+0 0  9993
2 55268  55.1087 152.9183 0004817 328.1073  26.3068  2.00549548 22991
GPS BIII-7  (PRN 01)    
1 62339U 24242A   26052.43586640 -.00000075  00000+0  00000+0 0  9999
2 62339  54.8966 338.8771 0015347 354.3716 193.6022  2.00569170  8932
GPS BIII-8  (PRN 21)    
1 64202U 25116A   26057.40036816 -.00000048  00000+0  00000+0 0  9998
2 64202  55.1630  35.5886 0008369 324.4515  34.2517  2.00553181  5643
GPS BIII-9  (PRN 20)    
1 67588U 26017A   26055.51952652 -.00000003  00000+0  00000+0 0  9995
2 67588  55.0130  93.2756 0001206  28.8360 331.2338  2.00560949429359
